#dP2019  3 28  0  0  0.00000000      96 __u+U IGS08 FIT  IAC
## 2046 345600.00000000   900.00000000 58570 0.0000000000000
+   97   C01C02C03C04C05C06C07C08C09C10C11C12C13C14C16E01E02
+        E03E04E05E07E08E09E11E12E13E14E15E18E19E21E24E25E26
+        E27E30E31E33E36G01G02G03G04G05G06G07G08G09G10G11G12
+        G13G14G15G16G17G18G19G20G21G22G23G24G25G26G27G28G29
+        G30G31G32J01J02J03R01R02R03R04R05R07R08R09R10R11R13
+        R14R15R16R17R18R19R20R21R22R23R24R26  0  0  0  0  0
++        12 12  0 12 12 10  8  8  8  8  7  7  8  7  8  4  4
++         4  5  4  4  4  4  4  4  4  4  4  4  4  4  4  4  5
++         4  4  4  5  4  3  3  3  4  3  3  3  3  3  3  3  3
++         3  3  4  3  3  3  3  3  3  3  3  3  3  3  3  3  3
++         3  3  3  9  9 10  5  5  5  5  5  5  5  6  5  5  6
++         5  5  6  5  5  5  6  5  5  5  6  8  0  0  0  0  0
%c M  cc GPS ccc cccc cccc cccc cccc ccccc ccccc ccccc ccccc
%c cc cc ccc ccc cccc cccc cccc cccc ccccc ccccc ccccc ccccc
%f  1.2500000  1.025000000  0.00000000000  0.000000000000000
%f  0.0000000  0.000000000  0.00000000000  0.000000000000000
%i    0    0    0    0      0      0      0      0         0
%i    0    0    0    0      0      0      0      0         0
/* INFORMATION & ANALYSIS CENTER (IAC)            FINAL DATA
/* S/V CLOCKS ARE ALIGNED TO GPS & GLONASS TIME RESPECTIVELY
/* USING THE BROADCAST EPHEMERIS                            
/* PCV:IGS14_2038 OL/AL:FES2004  NONE     YN ORB:CoN CLK:CoN
*  2019 03 28  7 15  0.00000000
PC01 -32269.491321  27116.563665   1040.248968    386.388753
PC02   4324.171493  41916.240646  -1132.818912   -404.363553
PC03      0.000000      0.000000      0.000000 999999.999999
PC04 -39630.386627  14412.410667    443.001833     32.035280
PC05  21856.611814  36007.110412  -1398.716570   -170.416345
PC06  -8023.174643  33280.150836 -24047.782673    595.185225
PC07 -16246.977386  22354.596698  31869.023260     73.199703
PC08 -24390.336322  33754.481517  -7378.604857    136.637849
PC09   1975.436647  40295.730971 -11441.221664    640.538053
PC10  -1362.350889  25937.436610  33363.054031   -612.895137
PC11 -13849.352620  -8625.249386  22687.888584    -72.790964
PC12   1381.116454 -27608.896859   3575.822543    528.442691
PC13 -12811.939564  34898.166896 -20070.942993   -618.941302
PC14 -20359.603645 -18772.966317   3705.716845    725.450548
PC16  -4235.092195  35958.027224 -21470.939867   -445.979146
PE01  18966.937903  12521.840929  18956.993867   -571.521788
PE02 -19018.549038 -12506.997324 -18935.565995     53.402846
PE03 -17085.647426 -23794.657316  -4205.981320   -148.825931
PE04  20639.014947   7848.730917  19718.130853   -249.508746
PE05  -3492.855316 -25910.945929  13881.802809     84.036506
PE07 -12072.634179  12864.989650 -23760.253216   -157.642988
PE08 -20582.668203  -7644.992320 -19841.760026   6381.666588
PE09  11851.282077 -12892.112431  23870.175792   6486.885213
PE11  18627.716672 -21382.603062  -8523.951664   5712.431268
PE12  18949.759382  -2983.327093 -22539.954127   6470.755811
PE13 -18553.794158  21344.875720   8729.249898    384.806947
PE14    375.767390  26137.330046   2794.232363   -507.371916
PE15 -18963.871195   3430.850435  22477.017600    915.730530
PE18   9980.276460 -25053.823161 -14683.594565   -607.185022
PE19  16155.321003  24688.497130   2350.200700     -7.459472
PE21  -2973.840308  16207.728860  24581.750497   -526.250792
PE24  22670.566571 -10423.984298 -15922.624151   6162.452282
PE25   3030.056461 -16208.306009 -24582.805474   1852.099933
PE26  -7470.752944  26796.142607 -10102.937535   4748.068149
PE27 -22967.599812  10290.420514  15583.692406    501.603563
PE30 -29484.021964  -1603.136456  -2190.151520   4997.459733
PE31  29445.254488   1652.848548   2540.718522    871.855720
PE33   8279.291700  16527.038397 -23103.597868    847.927215
PE36   7262.256494 -26829.549238  10205.222026    731.184260
PG01 -10062.220684  20276.834742 -13801.995672   -189.729568
PG02  21431.461749 -13941.375585  -6253.842672   -174.680622
PG03  -1967.074129  15347.211818 -21627.638475    187.432223
PG04  10766.901688  21598.895782  11103.179171    140.362409
PG05  20814.356615  -4770.358248  15803.503846      1.174366
PG06  20702.463986  -2703.287624 -16387.645457    244.751002
PG07   3905.995226  15919.468880  21059.024238      6.372884
PG08  -7196.285026  20187.189407  15596.524388   -137.792657
PG09   8377.769392  24598.815810   5421.543073    438.275851
PG10 -23948.723494 -11295.527047   3221.089561     86.977723
PG11  -7993.624052  25155.638507  -4475.162762   -637.191561
PG12   3871.449431 -14449.267065 -22168.966957    256.316882
PG13  12748.189681 -12825.195403  19325.216151    -70.051610
PG14 -15166.524495  -4318.021507 -21087.092208    -86.699121
PG15   4787.129905 -21915.230394  13656.161807   -321.350960
PG16 -19950.216747   3234.622748  17278.281670    -28.512066
PG17  13419.348056  14139.630818 -17676.124539     30.170518
PG18 -16560.679418  20106.596576  -5274.684956     38.876157
PG19  14880.854771   4745.216409 -21764.435331   -337.289522
PG20 -18889.480787 -14063.022838  12316.166272    523.488210
PG21  -8678.484243 -13500.369977  21983.706494   -223.847691
PG22 -10462.672281  12917.914265 -20464.442834   -672.868230
PG23    841.371595  25710.778962  -5348.809790   -192.404354
PG24  12379.834577 -21151.288270  -9969.391267    -64.001622
PG25  -9511.062949 -17025.254522 -18357.289531   -738.694421
PG26 -25167.722310  -2403.129511   8409.550687    160.906353
PG27 -12661.304490   9847.438971  21012.076232    -95.634464
PG28  22067.167504  14100.353135   4716.912416    766.894578
PG29  -3122.505023 -26368.519464    658.933211    239.071726
PG30  14527.432493   8019.066338  20786.220454    -76.243944
PG31 -21715.625265   3376.111248 -15223.203893     49.061400
PG32 -15398.831018 -10324.195522 -19014.176685   -159.802122
PJ01 -22599.668906  19270.214419 -25340.404707   -336.832602
PJ02 -31021.670802  25785.842899  17066.160729      0.701866
PJ03 -26401.403394  26008.112348  25159.399874     -0.337630
PR01  17095.182256   5639.092926  18083.643709     41.474190
PR02   3712.919432 -11757.152627  22378.210584    360.914923
PR03 -10356.311804 -20091.497473  11906.870075     -7.128152
PR04 -18564.246162 -16447.701734  -5978.136043    300.231054
PR05 -15891.943043  -3970.695100 -19549.015121     24.966117
PR07  10701.859781  20125.208135 -11376.297011    -17.252557
PR08  18434.911621  16803.811045   5370.085977     18.475142
PR09 -14708.814313  11592.507730  17295.080558     61.410785
PR10   1567.129868  10606.970324  23118.246999     46.357201
PR11  19379.043019   3954.919817  16141.184424    -61.105491
PR13  16026.603417 -11369.102342 -16287.962160    -21.759470
PR14  -1709.368425 -10848.062154 -23017.196276     37.342263
PR15 -18702.680702  -4270.503974 -16801.212364    100.931764
PR16 -25025.739242   5194.626036   -870.093073     10.545357
PR17   2817.965117 -23203.864961  10192.512979    215.675913
PR18  -6429.384182 -11803.855442  21711.841447     38.537960
PR19 -12365.559759   5832.921168  21537.373375    -22.349824
PR20 -11369.925613  21506.408018   7593.821915   -373.140991
PR21  -2550.806851  23010.923016 -10723.681326    -39.100760
PR22   7639.653232   9111.998888 -22538.794036    -11.651391
PR23  12835.212412 -11137.243725 -19030.049322    218.108563
PR24  10478.106422 -22491.463910  -5987.882038   -178.702645
PR26 -11605.188663  20481.789150   9861.127256      3.800229
EOF
